[{"OBJECT_NAME":"STARLINK-35154","OBJECT_ID":"2025-207W","EPOCH":"2026-03-09T22:39:40.819680","MEAN_MOTION":15.05648687,"ECCENTRICITY":8.56e-5,"INCLINATION":97.6037,"RA_OF_ASC_NODE":138.9743,"ARG_OF_PERICENTER":106.6462,"MEAN_ANOMALY":253.4859,"EPHEMERIS_TYPE":0,"CLASSIFICATION_TYPE":"U","NORAD_CAT_ID":65612,"ELEMENT_SET_NO":999,"REV_AT_EPOCH":2814,"BSTAR":0.00026506495,"MEAN_MOTION_DOT":3.766e-5,"MEAN_MOTION_DDOT":0},{"OBJECT_NAME":"UNKNOWN","OBJECT_ID":"","EPOCH":"2026-03-08T12:59:39.172704","MEAN_MOTION":15.0131728,"ECCENTRICITY":0.00204305,"INCLINATION":86.3534,"RA_OF_ASC_NODE":358.469,"ARG_OF_PERICENTER":121.5673,"MEAN_ANOMALY":238.7558,"EPHEMERIS_TYPE":0,"CLASSIFICATION_TYPE":"U","NORAD_CAT_ID":270086,"ELEMENT_SET_NO":999,"REV_AT_EPOCH":9441,"BSTAR":0.0053525659,"MEAN_MOTION_DOT":0.00069778,"MEAN_MOTION_DDOT":0}]
